OBJECT_NAME,OBJECT_ID,EPOCH,MEAN_MOTION,ECCENTRICITY,INCLINATION,RA_OF_ASC_NODE,ARG_OF_PERICENTER,MEAN_ANOMALY,EPHEMERIS_TYPE,CLASSIFICATION_TYPE,NORAD_CAT_ID,ELEMENT_SET_NO,REV_AT_EPOCH,BSTAR,MEAN_MOTION_DOT,MEAN_MOTION_DDOT
IRIDIUM 135,2017-083A,2026-06-28T10:53:51.165888,14.34217624,.00020786,86.3972,317.3046,93.0304,267.1129,0,U,43070,999,44576,-.2447272E-5,.13E-6,0
IRIDIUM 138,2017-083B,2026-06-28T14:51:19.179072,14.34217555,.00020811,86.3986,316.9331,87.1847,272.9587,0,U,43071,999,44577,-.4225858E-5,.8E-7,0
IRIDIUM 116,2017-083C,2026-06-28T15:46:07.167360,14.34217759,.00022192,86.3974,317.2055,101.4171,258.7274,0,U,43072,999,44581,.6561211E-5,.38E-6,0
IRIDIUM 130,2017-083D,2026-06-28T15:00:27.052704,14.34217464,.00020227,86.3982,317.4951,97.4156,262.7269,0,U,43073,999,44575,.22947927E-4,.84E-6,0
IRIDIUM 151,2017-083E,2026-06-28T11:02:59.176896,14.34217589,.00020915,86.3973,317.3458,94.2392,265.9043,0,U,43074,999,44575,-.1054534E-5,.17E-6,0
IRIDIUM 134,2017-083F,2026-06-28T15:18:43.008192,14.34217416,.00021901,86.3976,317.2794,94.2026,265.9420,0,U,43075,999,44574,.53513044E-4,.17E-5,0
IRIDIUM 137,2017-083G,2026-06-28T15:36:59.231520,14.34217556,.00024135,86.3976,317.3675,101.5091,258.6376,0,U,43076,999,44581,-.1520199E-5,.16E-6,0
IRIDIUM 141,2017-083H,2026-06-28T15:27:51.179040,14.34217467,.00020885,86.3971,317.2001,91.5870,268.5565,0,U,43077,999,44581,-.6313946E-5,.2E-7,0
IRIDIUM 153,2017-083J,2026-06-28T12:38:31.427232,14.34217520,.00020665,86.3964,285.7300,91.3140,268.8293,0,U,43078,999,44690,-.1046286E-5,.17E-6,0
IRIDIUM 131,2017-083K,2026-06-28T15:09:35.167392,14.34217883,.00022588,86.3978,317.3919,92.2301,267.9154,0,U,43079,999,44574,.15579409E-4,.63E-6,0
IRIDIUM 144,2018-030A,2026-06-28T12:47:39.246432,14.34216558,.00021051,86.3962,285.6562,98.7937,261.3497,0,U,43249,999,43176,-.6021922E-5,.3E-7,0
IRIDIUM 149,2018-030B,2026-06-28T12:56:47.416416,14.34217903,.00022985,86.3964,285.6202,93.3880,266.7579,0,U,43250,999,43178,.9578549E-5,.47E-6,0
IRIDIUM 157,2018-030C,2026-06-28T13:24:11.404512,14.34217252,.00022061,86.3964,285.6655,94.4623,265.6825,0,U,43251,999,43176,.10560919E-3,.316E-5,0
IRIDIUM 140,2018-030D,2026-06-28T13:51:35.387424,14.34217310,.0002174,86.3965,285.6703,95.3865,264.7578,0,U,43252,999,43182,.1298922E-4,.56E-6,0
IRIDIUM 145,2018-030E,2026-06-28T13:33:18.948096,14.34221487,.00021799,86.3964,285.6477,102.4624,257.6816,0,U,43253,999,43175,.52375875E-4,.166E-5,0
IRIDIUM 146,2018-030F,2026-06-28T13:05:55.422240,14.34217877,.00022838,86.3965,285.6680,97.6182,262.5273,0,U,43254,999,43176,.17020825E-4,.67E-6,0
IRIDIUM 148,2018-030G,2026-06-28T08:59:19.442112,14.34217604,.000223,86.3964,285.7832,95.7432,264.4018,0,U,43255,999,43177,-.3361149E-5,.1E-6,0
IRIDIUM 142,2018-030H,2026-06-28T13:15:03.431520,14.34217604,.00021843,86.3960,285.5974,99.7731,260.3711,0,U,43256,999,43176,-.1860572E-5,.15E-6,0
IRIDIUM 150,2018-030J,2026-06-28T09:08:27.347712,14.34218134,.00021929,86.3966,285.7856,95.8004,264.3442,0,U,43257,999,43176,.23712028E-4,.86E-6,0
IRIDIUM 143,2018-030K,2026-06-28T08:41:03.295680,14.34219029,.00021974,86.3968,285.8864,98.1618,261.9827,0,U,43258,999,43169,.75665606E-4,.232E-5,0
IRIDIUM 161,2018-047C,2026-06-28T11:16:41.113920,14.43277857,.00025324,86.4483,83.7540,81.4845,278.6643,0,U,43478,999,42676,.27707013E-4,.113E-5,0
IRIDIUM 152,2018-047D,2026-06-28T11:22:42.265056,14.34216695,.00022005,86.3953,83.6131,81.9964,278.1482,0,U,43479,999,42410,-.12119532E-3,-.32E-5,0
IRIDIUM 147,2018-047E,2026-06-28T11:31:50.219040,14.34218077,.00022007,86.3955,83.6160,87.3679,272.7769,0,U,43480,999,42410,.17923874E-4,.7E-6,0
IRIDIUM 110,2018-047F,2026-06-28T11:40:58.311264,14.34217522,.00023557,86.3956,83.7054,77.7149,282.4311,0,U,43481,999,42409,-.40993E-6,.19E-6,0
IRIDIUM 162,2018-047G,2026-06-28T11:07:36.802560,14.43279968,.00022646,86.4479,83.6475,83.2008,276.9451,0,U,43482,999,42675,.84621297E-4,.305E-5,0
IRIDIUM 160,2018-061A,2026-06-28T15:24:22.499712,14.34217708,.00022587,86.3952,52.0073,86.0034,274.1420,0,U,43569,999,41501,.5637108E-5,.36E-6,0
IRIDIUM 166,2018-061B,2026-06-28T14:20:26.431296,14.34217892,.00021793,86.3952,51.9763,88.7558,271.3887,0,U,43570,999,41503,.12323312E-4,.54E-6,0
IRIDIUM 158,2018-061C,2026-06-28T15:15:14.456736,14.34217733,.00021359,86.3949,51.9702,84.0014,276.1425,0,U,43571,999,41500,.21497949E-4,.8E-6,0
IRIDIUM 165,2018-061D,2026-06-28T14:11:18.471264,14.34217466,.00021507,86.3953,52.0354,89.8484,270.2958,0,U,43572,999,41502,.8839633E-5,.45E-6,0
IRIDIUM 155,2018-061E,2026-06-28T14:56:58.451136,14.34217842,.00020688,86.3949,51.8905,85.1707,274.9725,0,U,43573,999,41499,.10044949E-4,.48E-6,0
