IRIDIUM 135             
1 43070U 17083A   26179.45406442  .00000013  00000+0 -24473-5 0  9996
2 43070  86.3972 317.3046 0002078  93.0304 267.1129 14.34217624445769
IRIDIUM 138             
1 43071U 17083B   26179.61897198  .00000008  00000+0 -42259-5 0  9993
2 43071  86.3986 316.9331 0002081  87.1847 272.9587 14.34217555445773
IRIDIUM 116             
1 43072U 17083C   26179.65702740  .00000038  00000+0  65612-5 0  9996
2 43072  86.3974 317.2055 0002219 101.4171 258.7274 14.34217759445817
IRIDIUM 130             
1 43073U 17083D   26179.62531311  .00000084  00000+0  22948-4 0  9993
2 43073  86.3982 317.4951 0002022  97.4156 262.7269 14.34217464445758
IRIDIUM 151             
1 43074U 17083E   26179.46040714  .00000017  00000+0 -10545-5 0  9996
2 43074  86.3973 317.3458 0002091  94.2392 265.9043 14.34217589445756
IRIDIUM 134             
1 43075U 17083F   26179.63799778  .00000170  00000+0  53513-4 0  9997
2 43075  86.3976 317.2794 0002190  94.2026 265.9420 14.34217416445743
IRIDIUM 137             
1 43076U 17083G   26179.65068555  .00000016  00000+0 -15202-5 0  9996
2 43076  86.3976 317.3675 0002413 101.5091 258.6376 14.34217556445817
IRIDIUM 141             
1 43077U 17083H   26179.64434235  .00000002  00000+0 -63139-5 0  9995
2 43077  86.3971 317.2001 0002088  91.5870 268.5565 14.34217467445817
IRIDIUM 153             
1 43078U 17083J   26179.52675263  .00000017  00000+0 -10463-5 0  9999
2 43078  86.3964 285.7300 0002066  91.3140 268.8293 14.34217520446907
IRIDIUM 131             
1 43079U 17083K   26179.63165703  .00000063  00000+0  15579-4 0  9997
2 43079  86.3978 317.3919 0002258  92.2301 267.9154 14.34217883445742
IRIDIUM 144             
1 43249U 18030A   26179.53309313  .00000003  00000+0 -60219-5 0  9992
2 43249  86.3962 285.6562 0002105  98.7937 261.3497 14.34216558431765
IRIDIUM 149             
1 43250U 18030B   26179.53943769  .00000047  00000+0  95785-5 0  9996
2 43250  86.3964 285.6202 0002298  93.3880 266.7579 14.34217903431788
IRIDIUM 157             
1 43251U 18030C   26179.55846533  .00000316  00000+0  10561-3 0  9996
2 43251  86.3964 285.6655 0002206  94.4623 265.6825 14.34217252431764
IRIDIUM 140             
1 43252U 18030D   26179.57749291  .00000056  00000+0  12989-4 0  9990
2 43252  86.3965 285.6703 0002174  95.3865 264.7578 14.34217310431829
IRIDIUM 145             
1 43253U 18030E   26179.56480264  .00000166  00000+0  52376-4 0  9998
2 43253  86.3964 285.6477 0002179 102.4624 257.6816 14.34221487431753
IRIDIUM 146             
1 43254U 18030F   26179.54578035  .00000067  00000+0  17021-4 0  9999
2 43254  86.3965 285.6680 0002283  97.6182 262.5273 14.34217877431762
IRIDIUM 148             
1 43255U 18030G   26179.37453058  .00000010  00000+0 -33611-5 0  9991
2 43255  86.3964 285.7832 0002230  95.7432 264.4018 14.34217604431778
IRIDIUM 142             
1 43256U 18030H   26179.55212305  .00000015  00000+0 -18606-5 0  9992
2 43256  86.3960 285.5974 0002184  99.7731 260.3711 14.34217604431768
IRIDIUM 150             
1 43257U 18030J   26179.38087208  .00000086  00000+0  23712-4 0  9996
2 43257  86.3966 285.7856 0002192  95.8004 264.3442 14.34218134431769
IRIDIUM 143             
1 43258U 18030K   26179.36184370  .00000232  00000+0  75666-4 0  9991
2 43258  86.3968 285.8864 0002197  98.1618 261.9827 14.34219029431690
IRIDIUM 161             
1 43478U 18047C   26179.46992030  .00000113  00000+0  27707-4 0  9995
2 43478  86.4483  83.7540 0002532  81.4845 278.6643 14.43277857426769
IRIDIUM 152             
1 43479U 18047D   26179.47410029 -.00000320  00000+0 -12120-3 0  9994
2 43479  86.3953  83.6131 0002200  81.9964 278.1482 14.34216695424100
IRIDIUM 147             
1 43480U 18047E   26179.48044235  .00000070  00000+0  17924-4 0  9997
2 43480  86.3955  83.6160 0002200  87.3679 272.7769 14.34218077424103
IRIDIUM 110             
1 43481U 18047F   26179.48678601  .00000019  00000+0 -40993-6 0  9996
2 43481  86.3956  83.7054 0002355  77.7149 282.4311 14.34217522424097
IRIDIUM 162             
1 43482U 18047G   26179.46362040  .00000305  00000+0  84621-4 0  9993
2 43482  86.4479  83.6475 0002264  83.2008 276.9451 14.43279968426750
IRIDIUM 160             
1 43569U 18061A   26179.64192708  .00000036  00000+0  56371-5 0  9990
2 43569  86.3952  52.0073 0002258  86.0034 274.1420 14.34217708415015
IRIDIUM 166             
1 43570U 18061B   26179.59752814  .00000054  00000+0  12323-4 0  9994
2 43570  86.3952  51.9763 0002179  88.7558 271.3887 14.34217892415035
IRIDIUM 158             
1 43571U 18061C   26179.63558399  .00000080  00000+0  21498-4 0  9994
2 43571  86.3949  51.9702 0002135  84.0014 276.1425 14.34217733415005
IRIDIUM 165             
1 43572U 18061D   26179.59118601  .00000045  00000+0  88396-5 0  9990
2 43572  86.3953  52.0354 0002150  89.8484 270.2958 14.34217466415028
IRIDIUM 155             
1 43573U 18061E   26179.62289874  .00000048  00000+0  10045-4 0  9994
2 43573  86.3949  51.8905 0002068  85.1707 274.9725 14.34217842414994
